[{"OBJECT_NAME":"STARLINK-1559","OBJECT_ID":"2020-055BC","EPOCH":"2026-03-09T05:36:23.522976","MEAN_MOTION":15.29461733,"ECCENTRICITY":0.0004229,"INCLINATION":53.0254,"RA_OF_ASC_NODE":76.0659,"ARG_OF_PERICENTER":33.971,"MEAN_ANOMALY":326.1559,"EPHEMERIS_TYPE":0,"CLASSIFICATION_TYPE":"U","NORAD_CAT_ID":46077,"ELEMENT_SET_NO":999,"REV_AT_EPOCH":30951,"BSTAR":0.0014778793,"MEAN_MOTION_DOT":0.00042685,"MEAN_MOTION_DDOT":0},{"OBJECT_NAME":"STARLINK-34596","OBJECT_ID":"2025-144J","EPOCH":"2026-03-09T21:39:20.340000","MEAN_MOTION":15.30205408,"ECCENTRICITY":0.0001675,"INCLINATION":53.1598,"RA_OF_ASC_NODE":180.1105,"ARG_OF_PERICENTER":49.236,"MEAN_ANOMALY":310.8786,"EPHEMERIS_TYPE":0,"CLASSIFICATION_TYPE":"U","NORAD_CAT_ID":64732,"ELEMENT_SET_NO":999,"REV_AT_EPOCH":3974,"BSTAR":0.0014048153,"MEAN_MOTION_DOT":0.00041487,"MEAN_MOTION_DDOT":0}]
